*******************************************************************************
JPL/HORIZONS              271 Penthesilea (A887 TB)        2023-Sep-04 11:05:22
Rec #:     271 (+COV) Soln.date: 2023-Aug-23_01:08:14   # obs: 4046 (1897-2023)
 
IAU76/J2000 helio. ecliptic osc. elements (au, days, deg., period=Julian yrs):
 
  EPOCH=  2456904.5 ! 2014-Sep-04.00 (TDB)         Residual RMS= .29315
   EC= .1029734950376445   QR= 2.696222823470849   TP= 2456314.1683843541
   OM= 335.3727232553926   W=  58.78994560736254   IN= 3.539315730786616
   A= 3.00573373089349     MA= 111.6540187184201   ADIST= 3.315244638316132
   PER= 5.21115            N= .189137793           ANGMOM= .02966483
   DAN= 2.82322            DDN= 3.14149            L= 34.1141694
   B= 3.0265649            MOID= 1.70431006        TP= 2013-Jan-21.6683843541
 
Asteroid physical parameters (km, seconds, rotational period in hours):
   GM= n.a.                RAD= 32.9505            ROTPER= 18.787
   H= 9.93                 G= .150                 B-V= .724
                           ALBEDO= .045            STYP= PC

ASTEROID comments: 
1: soln ref.= JPL#68, OCC=0
2: source=ORB
*******************************************************************************


*******************************************************************************
Ephemeris / API_USER Mon Sep  4 11:05:22 2023 Pasadena, USA      / Horizons
*******************************************************************************
Target body name: 271 Penthesilea (A887 TB)       {source: JPL#68}
Center body name: Solar System Barycenter (0)     {source: DE441}
Center-site name: BODY CENTER
*******************************************************************************
Start time      : A.D. 2023-Aug-12 00:00:00.0000 TDB
Stop  time      : A.D. 2023-Aug-13 00:00:00.0000 TDB
Step-size       : 2880 minutes
*******************************************************************************
Center geodetic : 0.0, 0.0, 0.0                   {E-lon(deg),Lat(deg),Alt(km)}
Center cylindric: 0.0, 0.0, 0.0                   {E-lon(deg),Dxy(km),Dz(km)}
Center radii    : (undefined)
Small perturbers: Yes                             {source: SB441-N16}
Output units    : KM-S
Calendar mode   : Mixed Julian/Gregorian
Output type     : GEOMETRIC cartesian states
Output format   : 2 (position and velocity)
Reference frame : Ecliptic of J2000.0
*******************************************************************************
Initial IAU76/J2000 heliocentric ecliptic osculating elements (au, days, deg.):
  EPOCH=  2456904.5 ! 2014-Sep-04.00 (TDB)         Residual RMS= .29315        
   EC= .1029734950376445   QR= 2.696222823470849   TP= 2456314.1683843541      
   OM= 335.3727232553926   W=  58.78994560736254   IN= 3.539315730786616       
  Equivalent ICRF heliocentric cartesian coordinates (au, au/d):
   X=-2.878909781861763E+00  Y= 1.164647098399662E+00  Z= 5.017748525911373E-01
  VX=-4.590199548860240E-03 VY=-7.348921954023233E-03 VZ=-3.821446685579340E-03
Asteroid physical parameters (km, seconds, rotational period in hours):        
   GM= n.a.                RAD= 32.9505            ROTPER= 18.787              
   H= 9.93                 G= .150                 B-V= .724                   
                           ALBEDO= .045            STYP= PC                    
*******************************************************************************
JDTDB
   X     Y     Z
   VX    VY    VZ
*******************************************************************************
$$SOE
2460168.500000000 = A.D. 2023-Aug-12 00:00:00.0000 TDB 
 X = 2.769109372811567E+08 Y = 2.917010003069625E+08 Z = 2.358170078604017E+07
 VX=-1.346157608889532E+01 VY= 1.342056922359768E+01 VZ= 4.052841210963978E-01
$$EOE
*******************************************************************************
 
TIME

  Barycentric Dynamical Time ("TDB" or T_eph) output was requested. This
continuous coordinate time is equivalent to the relativistic proper time
of a clock at rest in a reference frame co-moving with the solar system
barycenter but outside the system's gravity well. It is the independent
variable in the solar system relativistic equations of motion.

  TDB runs at a uniform rate of one SI second per second and is independent
of irregularities in Earth's rotation.
 
CALENDAR SYSTEM

  Mixed calendar mode was active such that calendar dates after AD 1582-Oct-15
(if any) are in the modern Gregorian system. Dates prior to 1582-Oct-5 (if any)
are in the Julian calendar system, which is automatically extended for dates
prior to its adoption on 45-Jan-1 BC.  The Julian calendar is useful for
matching historical dates. The Gregorian calendar more accurately corresponds
to the Earth's orbital motion and seasons. A "Gregorian-only" calendar mode is
available if such physical events are the primary interest.

REFERENCE FRAME AND COORDINATES

  Ecliptic at the standard reference epoch

    Reference epoch: J2000.0
    X-Y plane: adopted Earth orbital plane at the reference epoch
               Note: IAU76 obliquity of 84381.448 arcseconds wrt ICRF X-Y plane
    X-axis   : ICRF
    Z-axis   : perpendicular to the X-Y plane in the directional (+ or -) sense
               of Earth's north pole at the reference epoch.

  Symbol meaning:

    JDTDB    Julian Day Number, Barycentric Dynamical Time
      X      X-component of position vector (km)
      Y      Y-component of position vector (km)
      Z      Z-component of position vector (km)
      VX     X-component of velocity vector (km/sec)                           
      VY     Y-component of velocity vector (km/sec)                           
      VZ     Z-component of velocity vector (km/sec)                           

ABERRATIONS AND CORRECTIONS

 Geometric state vectors have NO corrections or aberrations applied.

Computations by ...

    Solar System Dynamics Group, Horizons On-Line Ephemeris System
    4800 Oak Grove Drive, Jet Propulsion Laboratory
    Pasadena, CA  91109   USA

    General site: https://ssd.jpl.nasa.gov/
    Mailing list: https://ssd.jpl.nasa.gov/email_list.html
    System news : https://ssd.jpl.nasa.gov/horizons/news.html
    User Guide  : https://ssd.jpl.nasa.gov/horizons/manual.html
    Connect     : browser        https://ssd.jpl.nasa.gov/horizons/app.html#/x
                  API            https://ssd-api.jpl.nasa.gov/doc/horizons.html
                  command-line   telnet ssd.jpl.nasa.gov 6775
                  e-mail/batch   https://ssd.jpl.nasa.gov/ftp/ssd/hrzn_batch.txt
                  scripts        https://ssd.jpl.nasa.gov/ftp/ssd/SCRIPTS
    Author      : Jon.D.Giorgini@jpl.nasa.gov
*******************************************************************************
